[{"OBJECT_NAME":"CUTE-1.7+APD II (CO-65)","OBJECT_ID":"2008-021C","EPOCH":"2026-04-04T06:01:01.031232","MEAN_MOTION":15.08746428,"ECCENTRICITY":0.00071161,"INCLINATION":97.8239,"RA_OF_ASC_NODE":74.1938,"ARG_OF_PERICENTER":283.332,"MEAN_ANOMALY":76.7114,"EPHEMERIS_TYPE":0,"CLASSIFICATION_TYPE":"U","NORAD_CAT_ID":32785,"ELEMENT_SET_NO":999,"REV_AT_EPOCH":97404,"BSTAR":0.00062586463,"MEAN_MOTION_DOT":9.772e-5,"MEAN_MOTION_DDOT":0},{"OBJECT_NAME":"SEEDS II (CO-66)","OBJECT_ID":"2008-021J","EPOCH":"2026-04-04T05:41:54.768480","MEAN_MOTION":15.30245025,"ECCENTRICITY":0.00029178,"INCLINATION":97.7528,"RA_OF_ASC_NODE":88.7558,"ARG_OF_PERICENTER":161.1611,"MEAN_ANOMALY":198.9737,"EPHEMERIS_TYPE":0,"CLASSIFICATION_TYPE":"U","NORAD_CAT_ID":32791,"ELEMENT_SET_NO":999,"REV_AT_EPOCH":97597,"BSTAR":0.0011161136,"MEAN_MOTION_DOT":0.00032687,"MEAN_MOTION_DDOT":0},{"OBJECT_NAME":"YUBILEINY (RS30)","OBJECT_ID":"2008-025A","EPOCH":"2026-04-04T07:12:00.222048","MEAN_MOTION":12.43177021,"ECCENTRICITY":0.00203932,"INCLINATION":82.5054,"RA_OF_ASC_NODE":41.3896,"ARG_OF_PERICENTER":110.5957,"MEAN_ANOMALY":249.7313,"EPHEMERIS_TYPE":0,"CLASSIFICATION_TYPE":"U","NORAD_CAT_ID":32953,"ELEMENT_SET_NO":999,"REV_AT_EPOCH":81051,"BSTAR":0.00031845414,"MEAN_MOTION_DOT":5.4e-7,"MEAN_MOTION_DDOT":0},{"OBJECT_NAME":"KKS-1 (KISEKI)","OBJECT_ID":"2009-002H","EPOCH":"2026-04-04T05:47:25.784160","MEAN_MOTION":14.82931099,"ECCENTRICITY":0.00081877,"INCLINATION":98.119,"RA_OF_ASC_NODE":15.527,"ARG_OF_PERICENTER":160.1323,"MEAN_ANOMALY":200.0211,"EPHEMERIS_TYPE":0,"CLASSIFICATION_TYPE":"U","NORAD_CAT_ID":33499,"ELEMENT_SET_NO":999,"REV_AT_EPOCH":92523,"BSTAR":0.00038759001,"MEAN_MOTION_DOT":3.091e-5,"MEAN_MOTION_DDOT":0},{"OBJECT_NAME":"SWISSCUBE","OBJECT_ID":"2009-051B","EPOCH":"2026-04-04T06:34:48.402912","MEAN_MOTION":14.62335375,"ECCENTRICITY":0.00080979,"INCLINATION":98.4078,"RA_OF_ASC_NODE":0.8689,"ARG_OF_PERICENTER":83.1361,"MEAN_ANOMALY":277.0761,"EPHEMERIS_TYPE":0,"CLASSIFICATION_TYPE":"U","NORAD_CAT_ID":35932,"ELEMENT_SET_NO":999,"REV_AT_EPOCH":87835,"BSTAR":0.00041220982,"MEAN_MOTION_DOT":2.034e-5,"MEAN_MOTION_DDOT":0},{"OBJECT_NAME":"BEESAT-1","OBJECT_ID":"2009-051C","EPOCH":"2026-04-04T04:15:14.851008","MEAN_MOTION":14.61596567,"ECCENTRICITY":0.00065351,"INCLINATION":98.4009,"RA_OF_ASC_NODE":0.5587,"ARG_OF_PERICENTER":94.9229,"MEAN_ANOMALY":265.2718,"EPHEMERIS_TYPE":0,"CLASSIFICATION_TYPE":"U","NORAD_CAT_ID":35933,"ELEMENT_SET_NO":999,"REV_AT_EPOCH":87837,"BSTAR":0.00034724885,"MEAN_MOTION_DOT":1.677e-5,"MEAN_MOTION_DDOT":0},{"OBJECT_NAME":"ITUPSAT1","OBJECT_ID":"2009-051E","EPOCH":"2026-04-04T05:46:30.969408","MEAN_MOTION":14.6032644,"ECCENTRICITY":0.00086449,"INCLINATION":98.4094,"RA_OF_ASC_NODE":359.8921,"ARG_OF_PERICENTER":104.9075,"MEAN_ANOMALY":255.3082,"EPHEMERIS_TYPE":0,"CLASSIFICATION_TYPE":"U","NORAD_CAT_ID":35935,"ELEMENT_SET_NO":999,"REV_AT_EPOCH":87794,"BSTAR":0.00032887555,"MEAN_MOTION_DOT":1.541e-5,"MEAN_MOTION_DDOT":0},{"OBJECT_NAME":"XIWANG-1 (HOPE-1)","OBJECT_ID":"2009-072B","EPOCH":"2026-04-04T07:07:17.617152","MEAN_MOTION":13.16438811,"ECCENTRICITY":0.00080414,"INCLINATION":100.3961,"RA_OF_ASC_NODE":49.333,"ARG_OF_PERICENTER":45.6665,"MEAN_ANOMALY":314.5106,"EPHEMERIS_TYPE":0,"CLASSIFICATION_TYPE":"U","NORAD_CAT_ID":36122,"ELEMENT_SET_NO":999,"REV_AT_EPOCH":78328,"BSTAR":0.001157041,"MEAN_MOTION_DOT":3.98e-6,"MEAN_MOTION_DDOT":0},{"OBJECT_NAME":"O/OREOS (USA 219)","OBJECT_ID":"2010-062C","EPOCH":"2026-04-03T20:26:52.662624","MEAN_MOTION":14.93434758,"ECCENTRICITY":0.0015812,"INCLINATION":71.9703,"RA_OF_ASC_NODE":248.6757,"ARG_OF_PERICENTER":214.0698,"MEAN_ANOMALY":145.9459,"EPHEMERIS_TYPE":0,"CLASSIFICATION_TYPE":"U","NORAD_CAT_ID":37224,"ELEMENT_SET_NO":999,"REV_AT_EPOCH":10554,"BSTAR":0.0005438091,"MEAN_MOTION_DOT":5.674e-5,"MEAN_MOTION_DDOT":0},{"OBJECT_NAME":"JUGNU","OBJECT_ID":"2011-058B","EPOCH":"2026-04-04T01:13:50.142720","MEAN_MOTION":14.13753227,"ECCENTRICITY":0.00184124,"INCLINATION":19.9619,"RA_OF_ASC_NODE":38.8189,"ARG_OF_PERICENTER":338.0893,"MEAN_ANOMALY":108.9138,"EPHEMERIS_TYPE":0,"CLASSIFICATION_TYPE":"U","NORAD_CAT_ID":37839,"ELEMENT_SET_NO":999,"REV_AT_EPOCH":74852,"BSTAR":0.00018524959,"MEAN_MOTION_DOT":6.22e-6,"MEAN_MOTION_DDOT":0},{"OBJECT_NAME":"SRMSAT","OBJECT_ID":"2011-058D","EPOCH":"2026-04-04T06:43:21.473760","MEAN_MOTION":14.11557455,"ECCENTRICITY":0.00119242,"INCLINATION":19.9707,"RA_OF_ASC_NODE":146.8101,"ARG_OF_PERICENTER":110.2073,"MEAN_ANOMALY":318.698,"EPHEMERIS_TYPE":0,"CLASSIFICATION_TYPE":"U","NORAD_CAT_ID":37841,"ELEMENT_SET_NO":999,"REV_AT_EPOCH":74736,"BSTAR":0.0001255641,"MEAN_MOTION_DOT":4.96e-6,"MEAN_MOTION_DDOT":0},{"OBJECT_NAME":"STRAND-1","OBJECT_ID":"2013-009E","EPOCH":"2026-04-03T23:27:21.851136","MEAN_MOTION":14.3711819,"ECCENTRICITY":0.0009856,"INCLINATION":98.3906,"RA_OF_ASC_NODE":276.0425,"ARG_OF_PERICENTER":93.1051,"MEAN_ANOMALY":267.1264,"EPHEMERIS_TYPE":0,"CLASSIFICATION_TYPE":"U","NORAD_CAT_ID":39090,"ELEMENT_SET_NO":999,"REV_AT_EPOCH":68640,"BSTAR":0.00021376263,"MEAN_MOTION_DOT":5.93e-6,"MEAN_MOTION_DDOT":0},{"OBJECT_NAME":"ZACUBE-1 (TSHEPISOSAT)","OBJECT_ID":"2013-066B","EPOCH":"2026-04-03T20:55:22.471968","MEAN_MOTION":15.00579357,"ECCENTRICITY":0.0044929,"INCLINATION":97.8146,"RA_OF_ASC_NODE":55.8184,"ARG_OF_PERICENTER":138.2329,"MEAN_ANOMALY":222.2338,"EPHEMERIS_TYPE":0,"CLASSIFICATION_TYPE":"U","NORAD_CAT_ID":39417,"ELEMENT_SET_NO":999,"REV_AT_EPOCH":66958,"BSTAR":0.00071954723,"MEAN_MOTION_DOT":9.224e-5,"MEAN_MOTION_DDOT":0},{"OBJECT_NAME":"GOMX-1","OBJECT_ID":"2013-066Q","EPOCH":"2026-04-04T07:07:30.537408","MEAN_MOTION":14.69201113,"ECCENTRICITY":0.01281529,"INCLINATION":97.6537,"RA_OF_ASC_NODE":299.4043,"ARG_OF_PERICENTER":315.3293,"MEAN_ANOMALY":43.7644,"EPHEMERIS_TYPE":0,"CLASSIFICATION_TYPE":"U","NORAD_CAT_ID":39430,"ELEMENT_SET_NO":999,"REV_AT_EPOCH":65906,"BSTAR":0.00036250829,"MEAN_MOTION_DOT":2.368e-5,"MEAN_MOTION_DDOT":0},{"OBJECT_NAME":"CUBEBUG-2 (LO-74)","OBJECT_ID":"2013-066AA","EPOCH":"2026-04-04T07:08:31.996320","MEAN_MOTION":14.93261828,"ECCENTRICITY":0.00565562,"INCLINATION":97.8855,"RA_OF_ASC_NODE":43.0224,"ARG_OF_PERICENTER":272.6349,"MEAN_ANOMALY":86.8397,"EPHEMERIS_TYPE":0,"CLASSIFICATION_TYPE":"U","NORAD_CAT_ID":39440,"ELEMENT_SET_NO":999,"REV_AT_EPOCH":66596,"BSTAR":0.00069926646,"MEAN_MOTION_DOT":7.49e-5,"MEAN_MOTION_DDOT":0},{"OBJECT_NAME":"FUNCUBE-1 (AO-73)","OBJECT_ID":"2013-066AE","EPOCH":"2026-04-04T04:26:48.560928","MEAN_MOTION":15.08416857,"ECCENTRICITY":0.00390719,"INCLINATION":97.8232,"RA_OF_ASC_NODE":64.1714,"ARG_OF_PERICENTER":95.2943,"MEAN_ANOMALY":265.2744,"EPHEMERIS_TYPE":0,"CLASSIFICATION_TYPE":"U","NORAD_CAT_ID":39444,"ELEMENT_SET_NO":999,"REV_AT_EPOCH":66850,"BSTAR":0.0010412107,"MEAN_MOTION_DOT":0.00016448,"MEAN_MOTION_DDOT":0}]
